ONEWEB-0228             
1 48780U 21045P   24205.29440721  .00000122  00000+0  29177-3 0  9994
2 48780  87.9011  37.2606 0001760  82.1802 277.9528 13.15070907153095
